OBJECT_NAME,OBJECT_ID,EPOCH,MEAN_MOTION,ECCENTRICITY,INCLINATION,RA_OF_ASC_NODE,ARG_OF_PERICENTER,MEAN_ANOMALY,EPHEMERIS_TYPE,CLASSIFICATION_TYPE,NORAD_CAT_ID,ELEMENT_SET_NO,REV_AT_EPOCH,BSTAR,MEAN_MOTION_DOT,MEAN_MOTION_DDOT
SKYSAT-C4,2016-058B,2026-06-27T00:34:27.716160,15.48889148,.00021163,96.9173,199.3847,140.2622,219.8786,0,U,41771,999,54699,.32846344E-3,.17634E-3,0
SKYSAT-C5,2016-058C,2026-06-27T12:53:47.090112,15.34611988,.0001313,97.0468,218.7158,213.4210,146.6951,0,U,41772,999,54533,.22119E-3,.7344E-4,0
SKYSAT-C2,2016-058D,2026-06-27T12:16:21.999936,15.42299201,.0003723,97.0163,200.2183,47.7883,312.3681,0,U,41773,999,54664,.2695E-3,.11527E-3,0
SKYSAT-C3,2016-058E,2026-06-27T12:27:24.640416,15.52973528,.0001286,96.9008,208.9696,123.6162,236.5216,0,U,41774,999,54771,.33924E-3,.21067E-3,0
ALSAT-1B,2016-059C,2026-06-27T12:03:47.219040,14.72281455,.0008904,97.7750,186.8211,183.8712,176.2429,0,U,41785,999,52209,.34262E-4,.169E-5,0
PATHFINDER 1,2016-059E,2026-06-27T11:59:06.819072,14.67673960,.0028671,97.8167,177.3102,170.4470,189.7287,0,U,41787,999,52122,.10714E-3,.566E-5,0
SCATSAT 1,2016-059H,2026-06-27T10:12:34.179840,14.79547018,.0053886,98.1188,242.2971,213.8527,145.9241,0,U,41790,999,10310,.16582E-3,.1214E-4,0
GOKTURK 1A,2016-073A,2026-06-27T12:09:05.589216,14.62781408,.0001415,98.1246,73.0187,78.2661,281.8700,0,U,41875,999,51033,.80409E-4,.363E-5,0
CARTOSAT-2D,2017-008A,2026-06-27T11:58:45.604416,15.19284004,.0004772,97.4111,237.6124,192.1025,168.0095,0,U,41948,999,51914,.21604E-3,.4491E-4,0
SENTINEL-2B,2017-013A,2026-06-27T11:41:34.644192,14.30819890,.0001209,98.5695,253.1167,88.6497,271.4824,0,U,42063,999,48611,.80909E-4,.168E-5,0
CARTOSAT-2E,2017-036C,2026-06-27T12:24:14.911200,15.19242373,.0002272,97.4276,238.1496,268.0407,92.0568,0,U,42767,999,49971,.20084E-3,.4164E-4,0
FORMOSAT-5,2017-049A,2026-06-27T11:11:32.640000,14.50902290,.0012405,98.2253,253.5477,55.7614,304.4754,0,U,42920,999,46816,.4962E-4,.152E-5,0
SENTINEL-5P,2017-064A,2026-06-27T10:08:10.640832,14.19520605,.0001027,98.7926,120.4809,90.6706,269.4587,0,U,42969,999,45101,.3789E-4,.36E-6,0
SKYSAT-C11,2017-068A,2026-06-27T09:31:40.594368,15.58415211,.0000434,97.4352,327.6760,129.6900,230.4394,0,U,42987,999,48483,.39896E-3,.3031E-3,0
SKYSAT-C10,2017-068B,2026-06-27T07:59:55.926816,15.34802937,.000119,97.4510,315.2804,105.6260,254.5114,0,U,42988,999,48391,.28945E-3,.9687E-4,0
SKYSAT-C9,2017-068C,2026-06-27T08:44:45.424032,15.41806976,.0009549,97.4432,316.3444,101.3268,258.9053,0,U,42989,999,48432,.32725E-3,.13801E-3,0
SKYSAT-C8,2017-068D,2026-06-27T08:30:06.408576,15.37168604,.0001343,97.4529,315.1402,94.6389,265.5009,0,U,42990,999,48387,.29357E-3,.10603E-3,0
SKYSAT-C7,2017-068E,2026-06-27T11:28:51.651840,15.37124929,.0007015,97.4539,316.2562,76.5547,283.6479,0,U,42991,999,48395,.31459E-3,.11361E-3,0
SKYSAT-C6,2017-068F,2026-06-27T09:17:09.073248,15.34134074,.0005175,97.4574,316.0938,123.1103,237.0637,0,U,42992,999,48388,.30184E-3,.9896E-4,0
CARTOSAT-2F,2018-004A,2026-06-27T11:35:51.293184,15.19292549,.0001767,97.4794,238.0177,163.9555,196.1736,0,U,43111,999,46889,.18167E-3,.3765E-4,0
GAOFEN-1 02,2018-031A,2026-06-27T12:46:04.297152,14.76422837,.0002893,98.0528,241.0302,5.3407,354.7833,0,U,43259,999,44422,.16003E-3,.1061E-4,0
GAOFEN-1 03,2018-031B,2026-06-27T12:14:25.843776,14.76439034,.0003585,98.0514,240.8656,58.5151,301.6408,0,U,43260,999,44421,.26818E-4,.135E-5,0
GAOFEN-1 04,2018-031D,2026-06-27T11:39:35.234208,14.76450313,.0002017,98.0530,241.0335,65.7704,294.3716,0,U,43262,999,44420,.20481E-3,.1373E-4,0
SENTINEL-3B,2018-039A,2026-06-27T03:33:20.666304,14.26737400,.00007571,98.6246,245.5374,108.4761,251.6502,0,U,43437,999,42554,.58567144E-4,.98E-6,0
GAOFEN-5 01,2018-043A,2026-06-27T11:23:15.529056,14.60612308,.0002877,98.4575,150.2770,65.1136,295.0363,0,U,43461,999,43319,.79395E-4,.337E-5,0
GAOFEN-6,2018-048A,2026-06-27T12:10:35.656896,14.76374171,.0011623,98.0895,241.1683,131.3639,228.8572,0,U,43484,999,43491,.74186E-4,.463E-5,0
GAOFEN-11 01,2018-063A,2026-06-27T12:44:46.501728,15.55582167,.0002116,97.1293,245.3832,305.5229,54.5829,0,U,43585,999,44195,.26655E-3,.18173E-3,0
ICESAT-2,2018-070A,2026-06-27T13:35:07.470816,15.28206289,.0006248,92.0085,293.7829,95.8349,264.3612,0,U,43613,999,43404,.32509E-3,.8938E-4,0
HYSIS,2018-096A,2026-06-27T11:56:23.967168,14.78639421,.0001869,97.9841,245.1651,92.2118,267.9307,0,U,43719,999,40894,.26232E-3,.187E-4,0
KAZSTSAT,2018-099AB,2026-06-27T12:06:58.613184,14.99901199,.0008551,97.4290,209.9652,41.4106,318.7765,0,U,43783,999,41285,.15989E-3,.1928E-4,0
