SKYSAT-C4               
1 41771U 16058B   26178.02393190  .00017634  00000+0  32846-3 0  9997
2 41771  96.9173 199.3847 0002116 140.2622 219.8786 15.48889148546995
SKYSAT-C5               
1 41772U 16058C   26178.53735058  .00007344  00000+0  22119-3 0  9996
2 41772  97.0468 218.7158 0001313 213.4210 146.6951 15.34611988545338
SKYSAT-C2               
1 41773U 16058D   26178.51136574  .00011527  00000+0  26950-3 0  9998
2 41773  97.0163 200.2183 0003723  47.7883 312.3681 15.42299201546642
SKYSAT-C3               
1 41774U 16058E   26178.51903519  .00021067  00000+0  33924-3 0  9999
2 41774  96.9008 208.9696 0001286 123.6162 236.5216 15.52973528547711
ALSAT-1B                
1 41785U 16059C   26178.50262985  .00000169  00000+0  34262-4 0  9993
2 41785  97.7750 186.8211 0008904 183.8712 176.2429 14.72281455522098
PATHFINDER 1            
1 41787U 16059E   26178.49938448  .00000566  00000+0  10714-3 0  9993
2 41787  97.8167 177.3102 0028671 170.4470 189.7287 14.67673960521228
SCATSAT 1               
1 41790U 16059H   26178.42539560  .00001214  00000+0  16582-3 0  9992
2 41790  98.1188 242.2971 0053886 213.8527 145.9241 14.79547018103100
GOKTURK 1A              
1 41875U 16073A   26178.50631469  .00000363  00000+0  80409-4 0  9996
2 41875  98.1246  73.0187 0001415  78.2661 281.8700 14.62781408510333
CARTOSAT-2D             
1 41948U 17008A   26178.49913894  .00004491  00000+0  21604-3 0  9996
2 41948  97.4111 237.6124 0004772 192.1025 168.0095 15.19284004519149
SENTINEL-2B             
1 42063U 17013A   26178.48720653  .00000168  00000+0  80909-4 0  9990
2 42063  98.5695 253.1167 0001209  88.6497 271.4824 14.30819890486119
CARTOSAT-2E             
1 42767U 17036C   26178.51683925  .00004164  00000+0  20084-3 0  9997
2 42767  97.4276 238.1496 0002272 268.0407  92.0568 15.19242373499713
FORMOSAT-5              
1 42920U 17049A   26178.46635000  .00000152  00000+0  49620-4 0  9998
2 42920  98.2253 253.5477 0012405  55.7614 304.4754 14.50902290468165
SENTINEL-5P             
1 42969U 17064A   26178.42234538  .00000036  00000+0  37890-4 0  9992
2 42969  98.7926 120.4809 0001027  90.6706 269.4587 14.19520605451010
SKYSAT-C11              
1 42987U 17068A   26178.39699762  .00030310  00000+0  39896-3 0  9991
2 42987  97.4352 327.6760 0000434 129.6900 230.4394 15.58415211484836
SKYSAT-C10              
1 42988U 17068B   26178.33328619  .00009687  00000+0  28945-3 0  9992
2 42988  97.4510 315.2804 0001190 105.6260 254.5114 15.34802937483912
SKYSAT-C9               
1 42989U 17068C   26178.36441463  .00013801  00000+0  32725-3 0  9993
2 42989  97.4432 316.3444 0009549 101.3268 258.9053 15.41806976484326
SKYSAT-C8               
1 42990U 17068D   26178.35424084  .00010603  00000+0  29357-3 0  9998
2 42990  97.4529 315.1402 0001343  94.6389 265.5009 15.37168604483876
SKYSAT-C7               
1 42991U 17068E   26178.47837560  .00011361  00000+0  31459-3 0  9997
2 42991  97.4539 316.2562 0007015  76.5547 283.6479 15.37124929483957
SKYSAT-C6               
1 42992U 17068F   26178.38691057  .00009896  00000+0  30184-3 0  9991
2 42992  97.4574 316.0938 0005175 123.1103 237.0637 15.34134074483884
CARTOSAT-2F             
1 43111U 18004A   26178.48323256  .00003765  00000+0  18167-3 0  9996
2 43111  97.4794 238.0177 0001767 163.9555 196.1736 15.19292549468890
GAOFEN-1 02             
1 43259U 18031A   26178.53199418  .00001061  00000+0  16003-3 0  9990
2 43259  98.0528 241.0302 0002893   5.3407 354.7833 14.76422837444223
GAOFEN-1 03             
1 43260U 18031B   26178.51002134  .00000135  00000+0  26818-4 0  9995
2 43260  98.0514 240.8656 0003585  58.5151 301.6408 14.76439034444219
GAOFEN-1 04             
1 43262U 18031D   26178.48582447  .00001373  00000+0  20481-3 0  9997
2 43262  98.0530 241.0335 0002017  65.7704 294.3716 14.76450313444201
SENTINEL-3B             
1 43437U 18039A   26178.14815586  .00000098  00000+0  58567-4 0  9995
2 43437  98.6246 245.5374 0000757 108.4761 251.6502 14.26737400425549
GAOFEN-5 01             
1 43461U 18043A   26178.47448529  .00000337  00000+0  79395-4 0  9990
2 43461  98.4575 150.2770 0002877  65.1136 295.0363 14.60612308433195
GAOFEN-6                
1 43484U 18048A   26178.50735714  .00000463  00000+0  74186-4 0  9992
2 43484  98.0895 241.1683 0011623 131.3639 228.8572 14.76374171434914
GAOFEN-11 01            
1 43585U 18063A   26178.53109377  .00018173  00000+0  26655-3 0  9998
2 43585  97.1293 245.3832 0002116 305.5229  54.5829 15.55582167441952
ICESAT-2                
1 43613U 18070A   26178.56605869  .00008938  00000+0  32509-3 0  9991
2 43613  92.0085 293.7829 0006248  95.8349 264.3612 15.28206289434043
HYSIS                   
1 43719U 18096A   26178.49749962  .00001870  00000+0  26232-3 0  9995
2 43719  97.9841 245.1651 0001869  92.2118 267.9307 14.78639421408949
KAZSTSAT                
1 43783U 18099AB  26178.50484506  .00001928  00000+0  15989-3 0  9992
2 43783  97.4290 209.9652 0008551  41.4106 318.7765 14.99901199412855
